<?xml version="1.0" encoding="UTF-8"?>
<gpx version="1.1" creator="100dola sport" xmlns="http://www.topografix.com/GPX/1/1">
<metadata><name>Kohútka z Valašského Meziříčí</name></metadata>
<trk><name>Kohútka z Valašského Meziříčí</name><trkseg>
<trkpt lat="49.47292" lon="17.96477"><ele>295</ele></trkpt>
<trkpt lat="49.47292" lon="17.96477"><ele>295</ele></trkpt>
<trkpt lat="49.47317" lon="17.96343"><ele>297</ele></trkpt>
<trkpt lat="49.47262" lon="17.96457"><ele>296</ele></trkpt>
<trkpt lat="49.47501" lon="17.97508"><ele>299</ele></trkpt>
<trkpt lat="49.47290" lon="17.97812"><ele>298</ele></trkpt>
<trkpt lat="49.47290" lon="17.97814"><ele>297</ele></trkpt>
<trkpt lat="49.47290" lon="17.97814"><ele>297</ele></trkpt>
<trkpt lat="49.47302" lon="17.97826"><ele>297</ele></trkpt>
<trkpt lat="49.47291" lon="17.97816"><ele>298</ele></trkpt>
<trkpt lat="49.47209" lon="17.98203"><ele>300</ele></trkpt>
<trkpt lat="49.47361" lon="17.99256"><ele>303</ele></trkpt>
<trkpt lat="49.47444" lon="18.00682"><ele>309</ele></trkpt>
<trkpt lat="49.47120" lon="18.02065"><ele>314</ele></trkpt>
<trkpt lat="49.46428" lon="18.02695"><ele>317</ele></trkpt>
<trkpt lat="49.46117" lon="18.03694"><ele>322</ele></trkpt>
<trkpt lat="49.46248" lon="18.04989"><ele>327</ele></trkpt>
<trkpt lat="49.46359" lon="18.06323"><ele>334</ele></trkpt>
<trkpt lat="49.45965" lon="18.07657"><ele>341</ele></trkpt>
<trkpt lat="49.46065" lon="18.09090"><ele>348</ele></trkpt>
<trkpt lat="49.45737" lon="18.10397"><ele>355</ele></trkpt>
<trkpt lat="49.45868" lon="18.11898"><ele>362</ele></trkpt>
<trkpt lat="49.45706" lon="18.13212"><ele>370</ele></trkpt>
<trkpt lat="49.45679" lon="18.14056"><ele>375</ele></trkpt>
<trkpt lat="49.45340" lon="18.15498"><ele>383</ele></trkpt>
<trkpt lat="49.44891" lon="18.16891"><ele>395</ele></trkpt>
<trkpt lat="49.44474" lon="18.18199"><ele>409</ele></trkpt>
<trkpt lat="49.44022" lon="18.19378"><ele>432</ele></trkpt>
<trkpt lat="49.43443" lon="18.20401"><ele>447</ele></trkpt>
<trkpt lat="49.43094" lon="18.21377"><ele>478</ele></trkpt>
<trkpt lat="49.42928" lon="18.21756"><ele>499</ele></trkpt>
<trkpt lat="49.42928" lon="18.21756"><ele>500</ele></trkpt>
<trkpt lat="49.42928" lon="18.21756"><ele>500</ele></trkpt>
<trkpt lat="49.42928" lon="18.21756"><ele>500</ele></trkpt>
<trkpt lat="49.42928" lon="18.21756"><ele>500</ele></trkpt>
<trkpt lat="49.42928" lon="18.21756"><ele>500</ele></trkpt>
<trkpt lat="49.42928" lon="18.21756"><ele>500</ele></trkpt>
<trkpt lat="49.42891" lon="18.21743"><ele>500</ele></trkpt>
<trkpt lat="49.41935" lon="18.22367"><ele>498</ele></trkpt>
<trkpt lat="49.41260" lon="18.22908"><ele>531</ele></trkpt>
<trkpt lat="49.40779" lon="18.23544"><ele>552</ele></trkpt>
<trkpt lat="49.40599" lon="18.24597"><ele>587</ele></trkpt>
<trkpt lat="49.40397" lon="18.24276"><ele>618</ele></trkpt>
<trkpt lat="49.40317" lon="18.24045"><ele>649</ele></trkpt>
<trkpt lat="49.40012" lon="18.23911"><ele>681</ele></trkpt>
<trkpt lat="49.39658" lon="18.24000"><ele>715</ele></trkpt>
<trkpt lat="49.39357" lon="18.24247"><ele>750</ele></trkpt>
<trkpt lat="49.38987" lon="18.24056"><ele>782</ele></trkpt>
<trkpt lat="49.38825" lon="18.24343"><ele>804</ele></trkpt>
<trkpt lat="49.38825" lon="18.24343"><ele>804</ele></trkpt>
<trkpt lat="49.38825" lon="18.24343"><ele>804</ele></trkpt>
<trkpt lat="49.38825" lon="18.24343"><ele>804</ele></trkpt>
<trkpt lat="49.39030" lon="18.25319"><ele>768</ele></trkpt>
<trkpt lat="49.38228" lon="18.27713"><ele>622</ele></trkpt>
<trkpt lat="49.36896" lon="18.27651"><ele>542</ele></trkpt>
<trkpt lat="49.36020" lon="18.28178"><ele>516</ele></trkpt>
<trkpt lat="49.35402" lon="18.27018"><ele>505</ele></trkpt>
<trkpt lat="49.35050" lon="18.25361"><ele>497</ele></trkpt>
<trkpt lat="49.35160" lon="18.23403"><ele>482</ele></trkpt>
<trkpt lat="49.34625" lon="18.21747"><ele>469</ele></trkpt>
<trkpt lat="49.33915" lon="18.21066"><ele>458</ele></trkpt>
<trkpt lat="49.33763" lon="18.19843"><ele>454</ele></trkpt>
<trkpt lat="49.33101" lon="18.20050"><ele>463</ele></trkpt>
<trkpt lat="49.32507" lon="18.20628"><ele>482</ele></trkpt>
<trkpt lat="49.32237" lon="18.21547"><ele>503</ele></trkpt>
<trkpt lat="49.32026" lon="18.22494"><ele>524</ele></trkpt>
<trkpt lat="49.31566" lon="18.23125"><ele>552</ele></trkpt>
<trkpt lat="49.31087" lon="18.23569"><ele>583</ele></trkpt>
<trkpt lat="49.30773" lon="18.23567"><ele>619</ele></trkpt>
<trkpt lat="49.30452" lon="18.23491"><ele>657</ele></trkpt>
<trkpt lat="49.30503" lon="18.23776"><ele>697</ele></trkpt>
<trkpt lat="49.30204" lon="18.23643"><ele>730</ele></trkpt>
<trkpt lat="49.30108" lon="18.23772"><ele>767</ele></trkpt>
<trkpt lat="49.29985" lon="18.23754"><ele>801</ele></trkpt>
<trkpt lat="49.29834" lon="18.23675"><ele>835</ele></trkpt>
<trkpt lat="49.29544" lon="18.23488"><ele>877</ele></trkpt>
<trkpt lat="49.29472" lon="18.23046"><ele>911</ele></trkpt>
<trkpt lat="49.29469" lon="18.22996"><ele>915</ele></trkpt>
<trkpt lat="49.29469" lon="18.22996"><ele>913</ele></trkpt>
<trkpt lat="49.29469" lon="18.22996"><ele>914</ele></trkpt>
<trkpt lat="49.29469" lon="18.22996"><ele>914</ele></trkpt>
<trkpt lat="49.29469" lon="18.22996"><ele>914</ele></trkpt>
<trkpt lat="49.29469" lon="18.22996"><ele>914</ele></trkpt>
<trkpt lat="49.29469" lon="18.22996"><ele>914</ele></trkpt>
<trkpt lat="49.29469" lon="18.22996"><ele>914</ele></trkpt>
<trkpt lat="49.29469" lon="18.22996"><ele>914</ele></trkpt>
<trkpt lat="49.29879" lon="18.23807"><ele>830</ele></trkpt>
<trkpt lat="49.30526" lon="18.23446"><ele>658</ele></trkpt>
<trkpt lat="49.31887" lon="18.22729"><ele>548</ele></trkpt>
<trkpt lat="49.32473" lon="18.20683"><ele>494</ele></trkpt>
<trkpt lat="49.33560" lon="18.19636"><ele>459</ele></trkpt>
<trkpt lat="49.33562" lon="18.19641"><ele>456</ele></trkpt>
<trkpt lat="49.34040" lon="18.20552"><ele>461</ele></trkpt>
<trkpt lat="49.34754" lon="18.22063"><ele>470</ele></trkpt>
<trkpt lat="49.35137" lon="18.23725"><ele>480</ele></trkpt>
<trkpt lat="49.35146" lon="18.24039"><ele>482</ele></trkpt>
<trkpt lat="49.35146" lon="18.24039"><ele>482</ele></trkpt>
<trkpt lat="49.35155" lon="18.24052"><ele>482</ele></trkpt>
<trkpt lat="49.35006" lon="18.22629"><ele>475</ele></trkpt>
<trkpt lat="49.34269" lon="18.21036"><ele>462</ele></trkpt>
<trkpt lat="49.33551" lon="18.19348"><ele>450</ele></trkpt>
<trkpt lat="49.33100" lon="18.17454"><ele>437</ele></trkpt>
<trkpt lat="49.32317" lon="18.15848"><ele>429</ele></trkpt>
<trkpt lat="49.31616" lon="18.14205"><ele>420</ele></trkpt>
<trkpt lat="49.31033" lon="18.12367"><ele>406</ele></trkpt>
<trkpt lat="49.30675" lon="18.10384"><ele>399</ele></trkpt>
<trkpt lat="49.30253" lon="18.08328"><ele>389</ele></trkpt>
<trkpt lat="49.30493" lon="18.06278"><ele>383</ele></trkpt>
<trkpt lat="49.30573" lon="18.06073"><ele>381</ele></trkpt>
<trkpt lat="49.30573" lon="18.06073"><ele>381</ele></trkpt>
<trkpt lat="49.30678" lon="18.05451"><ele>378</ele></trkpt>
<trkpt lat="49.30975" lon="18.03619"><ele>370</ele></trkpt>
<trkpt lat="49.31115" lon="18.02074"><ele>365</ele></trkpt>
<trkpt lat="49.31096" lon="18.00598"><ele>359</ele></trkpt>
<trkpt lat="49.31853" lon="17.99585"><ele>354</ele></trkpt>
<trkpt lat="49.32790" lon="17.99924"><ele>349</ele></trkpt>
<trkpt lat="49.33386" lon="17.99783"><ele>347</ele></trkpt>
<trkpt lat="49.33386" lon="17.99783"><ele>347</ele></trkpt>
<trkpt lat="49.33386" lon="17.99783"><ele>347</ele></trkpt>
<trkpt lat="49.33426" lon="17.99788"><ele>347</ele></trkpt>
<trkpt lat="49.33953" lon="17.99195"><ele>346</ele></trkpt>
<trkpt lat="49.34620" lon="17.98250"><ele>342</ele></trkpt>
<trkpt lat="49.35323" lon="17.97111"><ele>338</ele></trkpt>
<trkpt lat="49.36185" lon="17.96422"><ele>340</ele></trkpt>
<trkpt lat="49.36645" lon="17.94984"><ele>331</ele></trkpt>
<trkpt lat="49.37316" lon="17.94581"><ele>334</ele></trkpt>
<trkpt lat="49.37848" lon="17.94666"><ele>324</ele></trkpt>
<trkpt lat="49.38911" lon="17.94937"><ele>319</ele></trkpt>
<trkpt lat="49.40028" lon="17.95399"><ele>325</ele></trkpt>
<trkpt lat="49.41329" lon="17.95211"><ele>315</ele></trkpt>
<trkpt lat="49.42062" lon="17.96110"><ele>310</ele></trkpt>
<trkpt lat="49.42928" lon="17.95624"><ele>303</ele></trkpt>
<trkpt lat="49.43835" lon="17.96506"><ele>300</ele></trkpt>
<trkpt lat="49.43767" lon="17.96590"><ele>302</ele></trkpt>
<trkpt lat="49.43896" lon="17.96570"><ele>304</ele></trkpt>
<trkpt lat="49.44622" lon="17.96815"><ele>305</ele></trkpt>
<trkpt lat="49.45321" lon="17.96829"><ele>303</ele></trkpt>
<trkpt lat="49.46230" lon="17.96369"><ele>298</ele></trkpt>
<trkpt lat="49.46916" lon="17.95903"><ele>292</ele></trkpt>
<trkpt lat="49.47303" lon="17.96433"><ele>295</ele></trkpt>
<trkpt lat="49.47382" lon="17.96657"><ele>296</ele></trkpt>
</trkseg></trk>
</gpx>
